X,Y,gid,name,plz,stadt,strasse,hausnr,hnr_zusatz,familienze,staedtisch,gc_xwert,gc_ywert,gid_2,statistische_raumeinheit_name,statist_raumeinheit_id,maennlich,weiblich,null_bis_unter_18,proz_0_bis_unter_18,gleich_18_bis_unter_65,proz_18_bis_unter_65,gleich_65_u_aelter,proz_65_u_aelter,durchschnittsalter,einw_ges,deutsch_ohne_migrationshintergrund,deutsch_mit_migrationshintergrund,auslaendisch,proz_hhmitkindern_an_allenhh,abs_bev_entwicklung_5jahre,proz_bev_entwicklung_5jahre
467753.96703,5763224.96736,101,Familienzentrum KiTa Kindermann-Stiftung,33602.000000000000000,Bielefeld,Waldhof,12.000000000000000,,x,x,467753.967029999999795,5763224.967360000126064,2,Stat. Raumeinheit 002,2,697,748,129,"8,9",1100,"76,1",216,"14,9","41,3",1445,953,248,244,"8,4",-35,"-2,4"
468587.37603,5763801.08836,106,KiTa Hoppetosse e.V.,33602.000000000000000,Bielefeld,Am Hallenbad,16.000000000000000,,,,468587.376029999984894,5763801.088360000401735,5,Stat. Raumeinheit 005,5,1008,1003,207,"10,3",1504,"74,8",300,"14,9","40,5",2011,989,495,527,"9,9",-36,"-1,8"
468360.99803,5764439.93836,37,DRK KiTa und Familienzentrum Weltweit,33602.000000000000000,Bielefeld,Waldemarstraße,4.000000000000000,,x,,468360.998030000017025,5764439.938360000029206,6,Stat. Raumeinheit 006,6,1209,1211,294,"12,1",1832,"75,7",294,"12,1","37,9",2420,918,625,877,"12,7",-135,"-5,3"
468517.64303,5764714.72836,95,St. Joseph,33602.000000000000000,Bielefeld,Josefstraße,15.000000000000000,,,,468517.643029999977443,5764714.728360000066459,6,Stat. Raumeinheit 006,6,1209,1211,294,"12,1",1832,"75,7",294,"12,1","37,9",2420,918,625,877,"12,7",-135,"-5,3"
468258.12703,5763483.94536,193,KiTa Münzstraße,33602.000000000000000,Bielefeld,Münzstraße,3.000000000000000,,,,468258.127029999974184,5763483.945360000245273,7,Stat. Raumeinheit 007,7,683,771,135,"9,3",1046,"71,9",273,"18,8","43,6",1454,1005,223,226,"10,3",-62,"-4,1"
468651.34803,5763429.93636,153,städt. KiTa Stadtmitte,33607.000000000000000,Bielefeld,Teutoburger Straße,106.000000000000000,,,x,468651.348029999993742,5763429.936359999701381,8,Stat. Raumeinheit 008,8,670,697,180,"13,2",1006,"73,6",181,"13,2","40,3",1367,632,330,405,"13,7",-27,"-1,9"
468539.82303,5762899.87836,115,Kita Nestfalken,33604.000000000000000,Bielefeld,Bielsteinstraße,7.000000000000000,,,,468539.823030000028666,5762899.878360000438988,9,Stat. Raumeinheit 009,9,676,686,178,"13,1",990,"72,7",194,"14,2","39,9",1362,888,185,289,"13,1",-94,"-6,5"
468281.234772638,5762617.32144451,60,Ev. KiTa Neustadt,33602.000000000000000,Bielefeld,August-Bebel-Straße,217.000000000000000,a,,,468241.414029999985360,5762648.307359999977052,10,Stat. Raumeinheit 010,10,945,1074,205,"10,2",1488,"73,7",326,"16,1","41,2",2019,1444,300,275,"11,1",97,"5"
466985.52303,5763814.21836,62,Evangelische Kindertageseinrichtung Sonnenstrahl,33615.000000000000000,Bielefeld,Fehrbelliner Straße,7.000000000000000,a,,,466985.523029999982100,5763814.218359999358654,12,Stat. Raumeinheit 012,12,1040,1149,282,"12,9",1514,"69,2",393,"18","43,1",2189,1735,283,171,"14,5",-31,"-1,4"
466420.28303,5764280.75036,180,"KiTa ""EffHa""",33615.000000000000000,Bielefeld,Wertherstraße,116.000000000000000,,,,466420.283029999991413,5764280.750359999947250,12,Stat. Raumeinheit 012,12,1040,1149,282,"12,9",1514,"69,2",393,"18","43,1",2189,1735,283,171,"14,5",-31,"-1,4"
467289.59703,5763851.59936,94,Kath. KiTa St. Franziskus,33615.000000000000000,Bielefeld,Stapenhorststraße,33.000000000000000,,,,467289.597030000062659,5763851.599360000342131,12,Stat. Raumeinheit 012,12,1040,1149,282,"12,9",1514,"69,2",393,"18","43,1",2189,1735,283,171,"14,5",-31,"-1,4"
466657.02003,5763948.84736,197,KiTa Kindermühle,33615.000000000000000,Bielefeld,Wertherstraße,84.000000000000000,,,,466657.020030000014231,5763948.847360000014305,12,Stat. Raumeinheit 012,12,1040,1149,282,"12,9",1514,"69,2",393,"18","43,1",2189,1735,283,171,"14,5",-31,"-1,4"
467434.26403,5763807.36036,177,Kinderladen Laerstraße,33615.000000000000000,Bielefeld,Laerstraße,9.000000000000000,,,,467434.264029999962077,5763807.360360001213849,14,Stat. Raumeinheit 014,14,867,938,208,"11,5",1343,"74,4",254,"14,1","41,5",1805,1423,226,156,"11,6",-51,"-2,7"
467192.30803,5764472.19136,100,Kinderladen Wittekindstraße,33615.000000000000000,Bielefeld,Wittekindstraße,16.000000000000000,,,,467192.308030000014696,5764472.191360000520945,15,Stat. Raumeinheit 015,15,1274,1437,227,"8,4",2042,"75,3",442,"16,3","42,3",2711,1993,390,328,"8,9",-26,"-0,9"
467493.48603,5764467.12136,75,Ev. KiTa Lydia-Kinderhaus,33615.000000000000000,Bielefeld,Schloßhofstraße,4.000000000000000,a,,,467493.486029999970924,5764467.121360000222921,15,Stat. Raumeinheit 015,15,1274,1437,227,"8,4",2042,"75,3",442,"16,3","42,3",2711,1993,390,328,"8,9",-26,"-0,9"
467500.36103,5764535.50636,114,Falkenkita,33615.000000000000000,Bielefeld,Gustav-Adolf-Straße,17.000000000000000,,,,467500.361029999970924,5764535.506359999999404,15,Stat. Raumeinheit 015,15,1274,1437,227,"8,4",2042,"75,3",442,"16,3","42,3",2711,1993,390,328,"8,9",-26,"-0,9"
467731.34003,5765455.43436,113,Die Schatzinseln,33613.000000000000000,Bielefeld,Bünder Straße,25.000000000000000,a,,,467731.340030000021216,5765455.434359999373555,17,Stat. Raumeinheit 017,17,959,979,260,"13,4",1387,"71,6",291,"15","41,2",1938,1146,397,395,"13,3",-8,"-0,4"
467618.59303,5764925.09536,123,städt. KiTa Bökenkampstraße,33613.000000000000000,Bielefeld,Bökenkampstraße,16.000000000000000,,,x,467618.593029999989085,5764925.095359999686480,17,Stat. Raumeinheit 017,17,959,979,260,"13,4",1387,"71,6",291,"15","41,2",1938,1146,397,395,"13,3",-8,"-0,4"
467548.70703,5765222.98836,145,städt. KiTa Nordpark,33613.000000000000000,Bielefeld,Wallenbrücker Straße,29.000000000000000,,x,x,467548.707029999990482,5765222.988359999842942,17,Stat. Raumeinheit 017,17,959,979,260,"13,4",1387,"71,6",291,"15","41,2",1938,1146,397,395,"13,3",-8,"-0,4"
467939.94603,5765393.58536,22,Villa Butterblume,33611.000000000000000,Bielefeld,Sudbrackstraße,43.000000000000000,,,,467939.946029999991879,5765393.585359999909997,18,Stat. Raumeinheit 018,18,1057,1117,228,"10,5",1708,"78,6",238,"10,9","37,9",2174,1205,426,543,"10,2",16,"0,7"
467743.08603,5764888.85936,139,städt. KiTa Kamphof,33613.000000000000000,Bielefeld,Am Kamphof,11.000000000000000,,,x,467743.086030000005849,5764888.859360000118613,18,Stat. Raumeinheit 018,18,1057,1117,228,"10,5",1708,"78,6",238,"10,9","37,9",2174,1205,426,543,"10,2",16,"0,7"
468469.873024848,5765301.97719029,211,Kita Werksgarten,33611.000000000000000,Bielefeld,Brüggemannstraße,9.000000000000000,,,,,,20,Stat. Raumeinheit 020,20,730,716,94,"6,5",1218,"84,2",134,"9,3","35,8",1446,651,270,525,"6,6",148,"11,4"
469018.86103,5764991.05136,117,Kindertagesstätte Villa Wundervoll,33609.000000000000000,Bielefeld,Herforder Straße,153.000000000000000,,,,469018.861029999970924,5764991.051359999924898,21,Stat. Raumeinheit 021,21,1237,1282,431,"17,1",1793,"71,2",295,"11,7","37,2",2519,1095,622,802,"17,8",-180,"-6,7"
468763.10503,5764011.84836,6,AWO KiTa Die Rasselbande,33602.000000000000000,Bielefeld,Dr. Viktoria-Steinbiß-Straße,13.000000000000000,,x,,468763.105029999976978,5764011.848360000178218,21,Stat. Raumeinheit 021,21,1237,1282,431,"17,1",1793,"71,2",295,"11,7","37,2",2519,1095,622,802,"17,8",-180,"-6,7"
469288.75203,5763356.16736,47,Ev. KiTa Paulus,33607.000000000000000,Bielefeld,Weißenburger Straße,12.000000000000000,,,,469288.752029999974184,5763356.167360000312328,22,Stat. Raumeinheit 022,22,1831,1805,621,"17,1",2515,"69,2",500,"13,8","39,1",3636,1702,746,1188,"15,6",-102,"-2,7"
469477.80803,5763722.49136,179,Familienzentrum NRW KiTa Flachsfarm,33607.000000000000000,Bielefeld,Flachsstraße,7.000000000000000,,x,,469477.808030000014696,5763722.491359999403358,22,Stat. Raumeinheit 022,22,1831,1805,621,"17,1",2515,"69,2",500,"13,8","39,1",3636,1702,746,1188,"15,6",-102,"-2,7"
469237.78203,5763181.59836,84,"KiTa ""Die Wilde 13""",33607.000000000000000,Bielefeld,Ravensberger Straße,130.000000000000000,,,,469237.782030000002123,5763181.598360000178218,23,Stat. Raumeinheit 023,23,1057,1225,276,"12,1",1645,"72,1",361,"15,8","42,2",2282,1426,448,408,"12,6",-18,"-0,8"
468673.77203,5763015.90736,185,"KiTa ""Kidstown""",33604.000000000000000,Bielefeld,Spindelstraße,5.000000000000000,,,,468673.772029999992810,5763015.907359999604523,23,Stat. Raumeinheit 023,23,1057,1225,276,"12,1",1645,"72,1",361,"15,8","42,2",2282,1426,448,408,"12,6",-18,"-0,8"
470033.19503,5763176.30736,28,Die Krümelmonster e.V.,33607.000000000000000,Bielefeld,Angelstraße,6.000000000000000,,,,470033.195030000002589,5763176.307359999977052,24,Stat. Raumeinheit 024,24,1328,1443,396,"14,3",1787,"64,5",588,"21,2","44,9",2771,1621,654,496,"15,2",-107,"-3,7"
469660.30303,5763278.39536,186,"KiTa ""Mühlenpark""",33607.000000000000000,Bielefeld,Kleine Howe,2.000000000000000,d,,,469660.303030000010040,5763278.395360000431538,24,Stat. Raumeinheit 024,24,1328,1443,396,"14,3",1787,"64,5",588,"21,2","44,9",2771,1621,654,496,"15,2",-107,"-3,7"
469221.77703,5762653.65236,136,städt. KiTa Jakobus,33604.000000000000000,Bielefeld,Jakobusstraße,5.000000000000000,a,x,x,469221.777029999997467,5762653.652359999716282,26,Stat. Raumeinheit 026,26,1335,1467,383,"13,7",1873,"66,8",546,"19,5","43,6",2802,1606,678,518,"15,4",-64,"-2,2"
468807.43703,5762601.94736,184,"KiTa ""Kidstown 2""",33604.000000000000000,Bielefeld,Eduard-Windthorst-Straße,7.000000000000000,,,,468807.437029999971855,5762601.947359999641776,26,Stat. Raumeinheit 026,26,1335,1467,383,"13,7",1873,"66,8",546,"19,5","43,6",2802,1606,678,518,"15,4",-64,"-2,2"
469659.06803,5762480.92736,187,KiTa und Familienzentrum Sieker Mäuse,33604.000000000000000,Bielefeld,Manchesterstraße,4.000000000000000,,x,,469659.068030000024009,5762480.927360000088811,26,Stat. Raumeinheit 026,26,1335,1467,383,"13,7",1873,"66,8",546,"19,5","43,6",2802,1606,678,518,"15,4",-64,"-2,2"
469304.90203,5762616.07636,91,Kath. KiTa Liebfrauen,33604.000000000000000,Bielefeld,Theodor-Hürth-Straße,2.000000000000000,,,,469304.902029999997467,5762616.076360000297427,26,Stat. Raumeinheit 026,26,1335,1467,383,"13,7",1873,"66,8",546,"19,5","43,6",2802,1606,678,518,"15,4",-64,"-2,2"
468716.88003,5762111.97936,61,Evangelische Kindertageseinrichtung Paul-Gerhardt,33604.000000000000000,Bielefeld,Diesterwegstraße,7.000000000000000,,,,468716.880030000000261,5762111.979360000230372,27,Stat. Raumeinheit 027,27,1120,1337,343,"14",1625,"66,1",489,"19,9","43,3",2457,1857,289,311,"15,7",39,"1,6"
468848.18203,5762454.46836,85,KiTa Kinderinsel,33604.000000000000000,Bielefeld,Ehlentruper Weg,58.000000000000000,,,,468848.182030000025406,5762454.468360000289977,27,Stat. Raumeinheit 027,27,1120,1337,343,"14",1625,"66,1",489,"19,9","43,3",2457,1857,289,311,"15,7",39,"1,6"
469444.80603,5762230.79136,158,städt. KiTa Wilbrandstraße,33604.000000000000000,Bielefeld,Wilbrandstraße,93.000000000000000,,,x,469444.806029999977909,5762230.791360000148416,28,Stat. Raumeinheit 028,28,1588,1812,585,"17,2",2239,"65,9",576,"16,9","40,8",3400,1842,812,746,"19,9",97,"2,9"
469183.197931554,5761869.78137555,12,AWO KiTa und Familienzentrum Lohmann-Carree,33604.000000000000000,Bielefeld,Königsbrügge,2.000000000000000,,x,,469175.115029999986291,5761828.952360000461340,28,Stat. Raumeinheit 028,28,1588,1812,585,"17,2",2239,"65,9",576,"16,9","40,8",3400,1842,812,746,"19,9",97,"2,9"
470928.681143783,5763277.34884499,207,KiTa Pirateninsel e.V. Brückenstraße,33607.000000000000000,Bielefeld,Brückenstraße,72.000000000000000,b,,,,,31,Stat. Raumeinheit 031,31,969,1032,353,"17,6",1250,"62,5",398,"19,9","41,7",2001,1103,370,528,"18,2",102,"5,4"
470464.545141869,5763625.9645594,209,Kita Falkenbande,33607.000000000000000,Bielefeld,Lerchenstraße,20.000000000000000,,,,,,31,Stat. Raumeinheit 031,31,969,1032,353,"17,6",1250,"62,5",398,"19,9","41,7",2001,1103,370,528,"18,2",102,"5,4"
471460.92302,5763316.52336,27,KiTa Die Kobolde,33607.000000000000000,Bielefeld,Kuckucksweg,47.000000000000000,,,,471460.923019999987446,5763316.523359999991953,32,Stat. Raumeinheit 032,32,1340,1356,546,"20,3",1660,"61,6",490,"18,2","41,7",2696,1303,764,629,"21,7",-48,"-1,7"
471215.18803,5763705.72336,41,Ev. Familienzentrum Apostel,33607.000000000000000,Bielefeld,Rotkehlchenweg,2.000000000000000,a,x,,471215.188030000019353,5763705.723360000178218,32,Stat. Raumeinheit 032,32,1340,1356,546,"20,3",1660,"61,6",490,"18,2","41,7",2696,1303,764,629,"21,7",-48,"-1,7"
470113.02003,5764410.98436,67,"Evangelisches Familienzentrum ""Haus Pusteblume""",33609.000000000000000,Bielefeld,Feldstraße,7.000000000000000,,x,,470113.020030000014231,5764410.984360000118613,33,Stat. Raumeinheit 033,33,1161,1186,377,"16,1",1546,"65,9",424,"18,1","41,7",2347,1134,530,683,"17",86,"3,8"
470219.29203,5763934.85036,146,städt. KiTa Oberer Esch,33607.000000000000000,Bielefeld,Auf dem Oberen Esch,4.000000000000000,,x,x,470219.292030000011437,5763934.850359998643398,34,Stat. Raumeinheit 034,34,1305,1243,438,"17,2",1702,"66,8",408,"16","39,8",2548,840,607,1101,"17",42,"1,7"
470464.44403,5764266.82836,10,AWO KiTa Kleine Kampe,33607.000000000000000,Bielefeld,Auf dem Langen Kampe,73.000000000000000,a,x,,470464.444030000013299,5764266.828360000625253,35,Stat. Raumeinheit 035,35,1729,1756,532,"15,3",2267,"65,1",686,"19,7","42,8",3485,1548,869,1068,"16,2",109,"3,2"
470547.96903,5764355.82336,97,Kath. KiTa und Familienzentrum St. Meinolf,33607.000000000000000,Bielefeld,Am Großen Holz,46.000000000000000,a,x,,470547.969029999978375,5764355.823359999805689,35,Stat. Raumeinheit 035,35,1729,1756,532,"15,3",2267,"65,1",686,"19,7","42,8",3485,1548,869,1068,"16,2",109,"3,2"
470908.66703,5764994.77436,133,städt. KiTa Heeper Fichten,33609.000000000000000,Bielefeld,Carl-Hoffmann-Straße,18.000000000000000,a,x,x,470908.667030000069644,5764994.774360000155866,36,Stat. Raumeinheit 036,36,1162,1216,388,"16,3",1538,"64,7",452,"19","42,8",2378,1291,547,540,"16,2",-28,"-1,2"
470923.328918054,5765081.51204097,217,AWO KiTa Am Heeper Wald,33609.000000000000000,Bielefeld,Heinrich-Forke-Str.,5.000000000000000,,,,,,36,Stat. Raumeinheit 036,36,1162,1216,388,"16,3",1538,"64,7",452,"19","42,8",2378,1291,547,540,"16,2",-28,"-1,2"
469358.78803,5765324.94136,152,städt. KiTa Stadtheider Straße,33609.000000000000000,Bielefeld,Stadtheider Straße,10.000000000000000,a,x,x,469358.788029999996070,5765324.941359999589622,37,Stat. Raumeinheit 037,37,679,641,257,"19,5",889,"67,3",174,"13,2","38",1320,415,338,567,"20,1",-66,"-4,8"
470664.54503,5765040.71536,66,Evangelische Kindertageseinrichtung Ziegelstraße,33609.000000000000000,Bielefeld,Ziegelstraße,64.000000000000000,a,,,470664.545029999979306,5765040.715359999798238,38,Stat. Raumeinheit 038,38,908,905,289,"15,9",1233,"68",291,"16,1","40,9",1813,842,447,524,"17,7",-7,"-0,4"
470151.070793103,5765515.99358621,205,DRK Kita Zauberflöte,33609.000000000000000,Bielefeld,Jöllheide,6.000000000000000,,,,,,39,Stat. Raumeinheit 039,39,1032,1043,418,"20,1",1436,"69,2",221,"10,7","36,7",2075,665,656,754,"23,4",283,"15,8"
469743.81903,5765597.25636,32,DRK KiTa Löwenzahn,33609.000000000000000,Bielefeld,Auf der Großen Heide,52.000000000000000,,x,,469743.819030000013299,5765597.256360000930727,39,Stat. Raumeinheit 039,39,1032,1043,418,"20,1",1436,"69,2",221,"10,7","36,7",2075,665,656,754,"23,4",283,"15,8"
470067.66003,5766977.92936,55,Ev. Familienzentrum Karl-Siebold,33611.000000000000000,Bielefeld,Am Balgenstück,27.000000000000000,d,x,,470067.660030000028200,5766977.929359999485314,41,Stat. Raumeinheit 102,102,1192,1277,572,"23,2",1431,"58",466,"18,9","40,5",2469,953,780,736,"27,5",-15,"-0,6"
469016.29503,5765915.39836,118,Bewegungskita Purzelbaum,33609.000000000000000,Bielefeld,Schillerstraße,29.000000000000000,,,,469016.295029999979306,5765915.398359999991953,42,Stat. Raumeinheit 103,103,1144,1266,377,"15,6",1364,"56,6",669,"27,8","46,9",2410,1366,692,352,"17,1",-51,"-2,1"
469703.89103,5766319.36736,149,städt. KiTa Plaßstraße,33611.000000000000000,Bielefeld,Plaßstraße,72.000000000000000,b,x,x,469703.891029999998864,5766319.367359999567270,42,Stat. Raumeinheit 103,103,1144,1266,377,"15,6",1364,"56,6",669,"27,8","46,9",2410,1366,692,352,"17,1",-51,"-2,1"
469024.886,5767551.25694118,208,Kita Am Herrengarten,33611.000000000000000,Bielefeld,Westerfeldstraße,26.000000000000000,,,,,,44,Stat. Raumeinheit 105,105,563,683,158,"12,7",730,"58,6",358,"28,7","48,7",1246,965,150,131,"14,7",81,"7"
469120.20003,5767277.29936,135,städt. KiTa Huchzermeierstraße,33611.000000000000000,Bielefeld,Huchzermeierstraße,16.000000000000000,,,x,469120.200030000007246,5767277.299359999597073,44,Stat. Raumeinheit 105,105,563,683,158,"12,7",730,"58,6",358,"28,7","48,7",1246,965,150,131,"14,7",81,"7"
469124.93103,5767697.63735,189,Waldorfkindergarten Bielefeld,33611.000000000000000,Bielefeld,An der Propstei,21.000000000000000,,,,469124.931030000036117,5767697.637350000441074,44,Stat. Raumeinheit 105,105,563,683,158,"12,7",730,"58,6",358,"28,7","48,7",1246,965,150,131,"14,7",81,"7"
469235.77803,5767565.73435,195,KiTa und Familienzentrum Westerfeldstraße,33611.000000000000000,Bielefeld,Westerfeldstraße,12.000000000000000,a,x,,469235.778029999986757,5767565.734349999576807,44,Stat. Raumeinheit 105,105,563,683,158,"12,7",730,"58,6",358,"28,7","48,7",1246,965,150,131,"14,7",81,"7"
468704.43161122,5767436.67622706,200,Kita Zum guten Hirten,33613.000000000000000,Bielefeld,Apfelstraße,235.000000000000000,,,,468118.867030000023078,5766289.544360000640154,44,Stat. Raumeinheit 105,105,563,683,158,"12,7",730,"58,6",358,"28,7","48,7",1246,965,150,131,"14,7",81,"7"
468660.16803,5765692.24336,76,JW-Familienzentrum Johannesstift KiTa Haus Sonnenblume,33611.000000000000000,Bielefeld,Schildescher Straße,101.000000000000000,,x,,468660.168030000000726,5765692.243359999731183,46,Stat. Raumeinheit 107,107,901,1016,311,"16,2",1242,"64,8",364,"19","42,1",1917,895,492,530,"18,6",-67,"-3,4"
468660.16803,5765692.24336,77,JW-Familienzentrum Johannesstift KiTa Pappelhof,33611.000000000000000,Bielefeld,Schildescher Straße,101.000000000000000,,x,,468660.168030000000726,5765692.243359999731183,46,Stat. Raumeinheit 107,107,901,1016,311,"16,2",1242,"64,8",364,"19","42,1",1917,895,492,530,"18,6",-67,"-3,4"
467465.974438451,5766116.59542658,57,Ev. KiTa Lydia,33613.000000000000000,Bielefeld,Gunststraße,20.000000000000000,a,,,467449.073030000028666,5766128.887360000051558,47,Stat. Raumeinheit 108,108,1118,1179,275,"12",1523,"66,3",499,"21,7","44,8",2297,1689,364,244,"13,4",-15,"-0,6"
468176.14403,5766396.25936,39,Kindergruppe Apfelstraße,33611.000000000000000,Bielefeld,Apfelstraße,129.000000000000000,,,,468176.144030000024941,5766396.259359999559820,48,Stat. Raumeinheit 109,109,935,1049,297,"15",1144,"57,7",543,"27,4","47,2",1984,1394,376,214,"16,7",41,"2,1"
468261.31203,5766183.52836,64,Ev. Familienzentrum Thomas,33611.000000000000000,Bielefeld,Sievekingstraße,2.000000000000000,,x,,468261.312029999971855,5766183.528360000811517,49,Stat. Raumeinheit 110,110,1158,1086,365,"16,3",1545,"68,9",334,"14,9","40,8",2244,863,457,924,"15,2",58,"2,7"
468303.18703,5767260.88536,63,Ev. Familienzentrum Stifts-Kita,33611.000000000000000,Bielefeld,Stapelbrede,70.000000000000000,,x,,468303.187029999971855,5767260.885359999723732,51,Stat. Raumeinheit 112,112,1419,1465,414,"14,4",1791,"62,1",679,"23,5","45,5",2884,1643,655,586,"16,5",-75,"-2,5"
467705.82403,5767089.96436,129,städt. KiTa Gellershagen,33613.000000000000000,Bielefeld,Mergenthalerweg,11.000000000000000,,x,x,467705.824030000017956,5767089.964359999634326,52,Stat. Raumeinheit 113,113,1254,1381,370,"14",1719,"65,2",546,"20,7","43,6",2635,1909,442,284,"16,2",-26,"-1"
467137.95703,5766422.77936,1,Familienzentrum Lange Wiese,33613.000000000000000,Bielefeld,Lange Wiese,6.000000000000000,,x,,467137.957029999990482,5766422.779360000044107,54,Stat. Raumeinheit 115,115,956,1072,340,"16,8",1303,"64,3",385,"19","42,4",2028,1218,474,336,"18,3",52,"2,6"
466407.25603,5766301.19636,140,städt. KiTa Kipps Hof,33613.000000000000000,Bielefeld,Kleekampweg,38.000000000000000,,,x,466407.256029999989551,5766301.196360000409186,55,Stat. Raumeinheit 116,116,777,838,265,"16,4",1044,"64,6",306,"18,9","42",1615,1173,249,193,"18",32,"2"
466846.57803,5765668.22436,58,Evangelische Kindertageseinrichtung Matthäus,33613.000000000000000,Bielefeld,Am Brodhagen,34.000000000000000,,,,466846.578029999975115,5765668.224360000342131,56,Stat. Raumeinheit 117,117,626,725,197,"14,6",823,"60,9",331,"24,5","47,2",1351,937,241,173,"15,8",-105,"-7,2"
467071.80103,5766138.67536,99,Kath. Familienzentrum KiTa Christkönig,33613.000000000000000,Bielefeld,Weihestraße,5.000000000000000,,x,,467071.801029999973252,5766138.675359999760985,56,Stat. Raumeinheit 117,117,626,725,197,"14,6",823,"60,9",331,"24,5","47,2",1351,937,241,173,"15,8",-105,"-7,2"
466640.13303,5765505.36236,109,Montessori Kinderhaus Gellershagen,33613.000000000000000,Bielefeld,Kopernikusstraße,70.000000000000000,,,,466640.133030000026338,5765505.362359999679029,57,Stat. Raumeinheit 118,118,788,798,230,"14,5",1083,"68,3",273,"17,2","42,2",1586,945,327,314,"15,4",-13,"-0,8"
466769.61503,5765439.94836,131,städt. KiTa Gustav-Freytag-Straße,33613.000000000000000,Bielefeld,Gustav-Freytag-Straße,17.000000000000000,,,x,466769.615029999986291,5765439.948359999805689,57,Stat. Raumeinheit 118,118,788,798,230,"14,5",1083,"68,3",273,"17,2","42,2",1586,945,327,314,"15,4",-13,"-0,8"
466230.83203,5765009.18036,74,Ev. Bonhoeffer Beschäftigtenkita der Universität Bielefeld,33615.000000000000000,Bielefeld,Jakob-Kaiser-Straße,2.000000000000000,b,,,466230.832030000048690,5765009.180359999649227,58,Stat. Raumeinheit 119,119,1122,1247,336,"14,2",1543,"65,1",490,"20,7","43,4",2369,1541,490,338,"15,4",46,"2"
466322.45703,5765519.83936,127,städt. KiTa Bültmannshof,33615.000000000000000,Bielefeld,Schloßhofstraße,143.000000000000000,e,,x,466322.457029999990482,5765519.839359999634326,58,Stat. Raumeinheit 119,119,1122,1247,336,"14,2",1543,"65,1",490,"20,7","43,4",2369,1541,490,338,"15,4",46,"2"
465309.71203,5764991.74536,161,KiTa am Voltmannshof,33615.000000000000000,Bielefeld,Konsequenz,37.000000000000000,,,,465309.712029999995138,5764991.745360000059009,60,Stat. Raumeinheit 121,121,883,1097,173,"8,7",1598,"80,7",209,"10,6","33,7",1980,1250,291,439,"8,5",50,"2,6"
465532.91903,5765333.59236,162,KiTa Kinderzimmer,33615.000000000000000,Bielefeld,Universitätsstraße,19.000000000000000,,,,465532.919029999990016,5765333.592360000126064,60,Stat. Raumeinheit 121,121,883,1097,173,"8,7",1598,"80,7",209,"10,6","33,7",1980,1250,291,439,"8,5",50,"2,6"
465234.74403,5765019.11636,163,Uni-KiTa,33615.000000000000000,Bielefeld,Konsequenz,41.000000000000000,,,,465234.744030000001658,5765019.116360000334680,60,Stat. Raumeinheit 121,121,883,1097,173,"8,7",1598,"80,7",209,"10,6","33,7",1980,1250,291,439,"8,5",50,"2,6"
466794.46503,5763042.64836,178,KiTa Villa Kunterbunt e.V.,33617.000000000000000,Bielefeld,Johannistal,32.000000000000000,,,,466794.465030000021216,5763042.648359999991953,61,Stat. Raumeinheit 201,201,621,677,232,"17,9",794,"61,2",272,"21","43,8",1298,1028,156,114,"21,2",-2,"-0,2"
467933.39503,5762214.06436,103,KiTa Tausendfüßler e.V.,33617.000000000000000,Bielefeld,Am Obstgarten,6.000000000000000,,,,467933.395030000014231,5762214.064360000193119,63,Stat. Raumeinheit 203,203,728,822,184,"11,9",982,"63,4",384,"24,8","47",1550,1036,189,325,"13,3",-54,"-3,4"
468150.95903,5761430.70636,50,Ev. Kindertagesstätte und Familienzentrum Erdenreich,33617.000000000000000,Bielefeld,Bethelweg,84.000000000000000,,x,,468150.959030000027269,5761430.706360000185668,64,Stat. Raumeinheit 204,204,579,435,140,"13,8",697,"68,7",177,"17,5","43,5",1014,717,118,179,"11,8",14,"1,4"
467301.09103,5762649.85936,48,Ev. Kindertagesstätte Lichtblick,33602.000000000000000,Bielefeld,Gadderbaumer Straße,33.000000000000000,b,,,467301.091030000010505,5762649.859360000118613,65,Stat. Raumeinheit 205,205,1117,1066,282,"12,9",1538,"70,5",363,"16,6","42,9",2183,1191,394,598,"12,8",-70,"-3,1"
467027.05103,5761496.02836,51,Ev. Kindertagesstätte Windspiel,33617.000000000000000,Bielefeld,Landgrafweg,15.000000000000000,,,,467027.051029999973252,5761496.028359999880195,65,Stat. Raumeinheit 205,205,1117,1066,282,"12,9",1538,"70,5",363,"16,6","42,9",2183,1191,394,598,"12,8",-70,"-3,1"
466803.23503,5761244.87736,102,"Kindertagesstätte ""Die Fuzzis"" e.V.",33617.000000000000000,Bielefeld,Pellaweg,13.000000000000000,,,,466803.235029999981634,5761244.877360000275075,66,Stat. Raumeinheit 206,206,1281,1431,453,"16,7",1669,"61,5",590,"21,8","45,3",2712,2072,452,188,"20",-85,"-3"
466646.00503,5761588.91636,40,Ev. KiTa Martini,33617.000000000000000,Bielefeld,Hortweg,12.000000000000000,,,,466646.005030000000261,5761588.916360000148416,66,Stat. Raumeinheit 206,206,1281,1431,453,"16,7",1669,"61,5",590,"21,8","45,3",2712,2072,452,188,"20",-85,"-3"
467239.091012571,5759705.87034693,83,Kinderhaus Wunderland,33647.000000000000000,Bielefeld,Leharstraße,24.000000000000000,,,,465903.579030000022613,5760854.236360000446439,67,Stat. Raumeinheit 301,301,748,799,206,"13,3",811,"52,4",530,"34,3","51,4",1547,1013,321,213,"16,2",48,"3,2"
466674.05203,5759585.27836,192,KiTa Leipziger Straße,33647.000000000000000,Bielefeld,Leipziger Straße,13.000000000000000,,,,466674.052030000020750,5759585.278359999880195,68,Stat. Raumeinheit 302,302,609,681,214,"16,6",829,"64,3",247,"19,1","43,1",1290,484,426,380,"19,4",25,"2"
466434.73703,5758584.69136,138,städt. KiTa Kammerich,33647.000000000000000,Bielefeld,Waldecker Straße,10.000000000000000,,,x,466434.737030000018422,5758584.691359999589622,69,Stat. Raumeinheit 303,303,1074,1013,437,"20,9",1365,"65,4",285,"13,7","38,5",2087,565,775,747,"25",-38,"-1,8"
466546.57803,5759367.54836,143,städt. KiTa Markt,33647.000000000000000,Bielefeld,Erfurter Straße,10.000000000000000,,x,x,466546.578029999975115,5759367.548360000364482,70,Stat. Raumeinheit 304,304,1385,1585,405,"13,6",1734,"58,4",831,"28","47,9",2970,1330,869,771,"15,9",-95,"-3,1"
466206.68303,5758789.09736,156,städt. KiTa Südring,33647.000000000000000,Bielefeld,Wilhelm-Thielke-Straße,35.000000000000000,,,x,466206.683030000014696,5758789.097359999082983,70,Stat. Raumeinheit 304,304,1385,1585,405,"13,6",1734,"58,4",831,"28","47,9",2970,1330,869,771,"15,9",-95,"-3,1"
465882.30203,5760139.26136,132,städt. KiTa Hagenbrock,33647.000000000000000,Bielefeld,Westfalenstraße,37.000000000000000,,,x,465882.302030000020750,5760139.261359999887645,72,Stat. Raumeinheit 306,306,597,682,193,"15,1",781,"61,1",305,"23,8","45,2",1279,653,320,306,"16",-7,"-0,5"
466033.46103,5759401.10036,90,Kath. KiTa Herz Jesu,33647.000000000000000,Bielefeld,Papenkamp,19.000000000000000,,,,466033.461030000005849,5759401.100359999574721,73,Stat. Raumeinheit 307,307,845,860,301,"17,7",1094,"64,2",310,"18,2","42,5",1705,737,502,466,"18,2",23,"1,4"
466263.18203,5759984.74236,194,KiTa Normannenstraße,33647.000000000000000,Bielefeld,Normannenstraße,20.000000000000000,,,,466263.182030000025406,5759984.742359999567270,74,Stat. Raumeinheit 308,308,555,575,171,"15,1",754,"66,7",205,"18,1","43,3",1130,513,303,314,"17,4",46,"4,2"
466370.49503,5759900.02236,175,Ev. KiTa Louise-Scheppler,33647.000000000000000,Bielefeld,Wikingerstraße,15.000000000000000,b,x,,466370.495029999932740,5759900.022359999828041,74,Stat. Raumeinheit 308,308,555,575,171,"15,1",754,"66,7",205,"18,1","43,3",1130,513,303,314,"17,4",46,"4,2"
466069.82603,5760759.86136,164,Ev. KiTa Arche Noah,33647.000000000000000,Bielefeld,Schulstraße,71.000000000000000,,x,,466069.826029999996535,5760759.861360000446439,76,Stat. Raumeinheit 310,310,685,738,287,"20,2",918,"64,5",218,"15,3","39,8",1423,386,485,552,"22,5",-81,"-5,4"
465762.91603,5760003.96436,191,Kita am Möllerstift,33647.000000000000000,Bielefeld,Am Möllerstift,22.000000000000000,,x,,465762.916030000022147,5760003.964359999634326,77,Stat. Raumeinheit 311,311,863,836,270,"15,9",1106,"65,1",323,"19","42,5",1699,717,472,510,"17,4",38,"2,3"
465224.873599975,5760292.20440001,198,KiTa Möllernest,33649.000000000000000,Bielefeld,Gütersloher Strasse,50.000000000000000,,,,465225.020000000018626,5760292.360000000335276,78,Stat. Raumeinheit 312,312,574,615,203,"17,1",709,"59,6",277,"23,3","44,7",1189,623,291,275,"20,8",-55,"-4,4"
464402.13803,5759465.57936,26,Die Glühwürmchen e. V.,33649.000000000000000,Bielefeld,Grabenkamp,35.000000000000000,,,,464402.138029999972787,5759465.579359998926520,79,Stat. Raumeinheit 313,313,961,967,348,"18",1220,"63,3",360,"18,7","42,2",1928,895,613,420,"22,8",66,"3,5"
464797.80003,5759520.81336,126,städt. KiTa Brock,33649.000000000000000,Bielefeld,Mülheimer Straße,20.000000000000000,,,x,464797.800029999983963,5759520.813360000029206,80,Stat. Raumeinheit 314,314,966,934,338,"17,8",1202,"63,3",360,"18,9","42,1",1900,870,429,601,"19",192,"11,2"
464621.45603,5759493.26836,141,städt. KiTa Kupferhammer,33649.000000000000000,Bielefeld,Von-Möller-Straße,54.000000000000000,b,,x,464621.456030000001192,5759493.268360000103712,80,Stat. Raumeinheit 314,314,966,934,338,"17,8",1202,"63,3",360,"18,9","42,1",1900,870,429,601,"19",192,"11,2"
464938.94703,5757506.89636,157,städt. KiTa Südwestfeld,33647.000000000000000,Bielefeld,Im Horst,15.000000000000000,,,x,464938.947029999981169,5757506.896359999664128,81,Stat. Raumeinheit 315,315,521,563,240,"22,1",628,"57,9",216,"19,9","42,3",1084,565,335,184,"27,6",-26,"-2,3"
459422.17404,5756829.01437,134,städt. KiTa Holtkamp,33649.000000000000000,Bielefeld,Brockhagener Straße,296.000000000000000,,,x,459422.174040000012610,5756829.014369999989867,82,Stat. Raumeinheit 316,316,768,797,236,"15,1",937,"59,9",392,"25","46,8",1565,1252,188,125,"20,7",18,"1,2"
461614.23903,5757697.93736,112,Der Ravensberger Regenbogen e.V.,33649.000000000000000,Bielefeld,Erpestraße,11.000000000000000,,,,461614.239029999997001,5757697.937360000796616,82,Stat. Raumeinheit 316,316,768,797,236,"15,1",937,"59,9",392,"25","46,8",1565,1252,188,125,"20,7",18,"1,2"
462576.56103,5756730.80837,181,"KiTa ""GOLDBECKchen""",33649.000000000000000,Bielefeld,Bokelstraße,25.000000000000000,,,,462576.561029999924358,5756730.808369998820126,82,Stat. Raumeinheit 316,316,768,797,236,"15,1",937,"59,9",392,"25","46,8",1565,1252,188,125,"20,7",18,"1,2"
462635.53103,5757578.56936,148,städt. KiTa Oberummeln,33649.000000000000000,Bielefeld,Zirbelstraße,1.000000000000000,,,x,462635.531030000071041,5757578.569360000081360,84,Stat. Raumeinheit 318,318,845,867,340,"19,9",981,"57,3",391,"22,8","42,9",1712,979,278,455,"22,7",-96,"-5,3"
463186.52003,5758096.35436,168,Ev. Ichthys KiTa und Familienzentrum,33649.000000000000000,Bielefeld,Queller Straße,192.000000000000000,a,x,,463186.520030000014231,5758096.354359999299049,84,Stat. Raumeinheit 318,318,845,867,340,"19,9",981,"57,3",391,"22,8","42,9",1712,979,278,455,"22,7",-96,"-5,3"
463773.69803,5759878.12136,19,Elterninitiative Kita Waldquelle e.V.,33649.000000000000000,Bielefeld,Waldquellenweg,20.000000000000000,,,,463773.698030000028666,5759878.121360000222921,87,Stat. Raumeinheit 321,321,731,782,332,"21,9",867,"57,3",314,"20,8","42,9",1513,1089,316,108,"29,4",-30,"-1,9"
463623.551334759,5760150.23107633,199,Queller Falkenküken,33649.000000000000000,Bielefeld,Schäferkamp,16.000000000000000,c,,,463623.570000000006985,5760209.589359999634326,87,Stat. Raumeinheit 321,321,731,782,332,"21,9",867,"57,3",314,"20,8","42,9",1513,1089,316,108,"29,4",-30,"-1,9"
463680.72503,5760892.27436,119,städt. KiTa Am Lichtebach,33649.000000000000000,Bielefeld,Carl-Severing-Straße,150.000000000000000,,,x,463680.725029999972321,5760892.274360000155866,88,Stat. Raumeinheit 322,322,908,898,336,"18,6",1121,"62,1",349,"19,3","43,3",1806,1286,368,152,"22,5",27,"1,5"
464006.29927878,5760557.29706259,219,Kita Arminstraße,33649.000000000000000,Bielefeld,Arminstraße,45.000000000000000,,,,,,88,Stat. Raumeinheit 322,322,908,898,336,"18,6",1121,"62,1",349,"19,3","43,3",1806,1286,368,152,"22,5",27,"1,5"
464262.01303,5760866.80636,122,städt. KiTa Auf dem Rennplatz,33649.000000000000000,Bielefeld,Galoppweg,1.000000000000000,,x,x,464262.013029999972787,5760866.806359999813139,89,Stat. Raumeinheit 323,323,1212,1374,503,"19,5",1490,"57,6",593,"22,9","45,4",2586,1685,630,271,"26,4",-57,"-2,2"
464597.03503,5760749.00036,169,Ev. Johannes-Kindergarten,33649.000000000000000,Bielefeld,Klemensstraße,9.000000000000000,,,,464597.035030000028200,5760749.000359999947250,89,Stat. Raumeinheit 323,323,1212,1374,503,"19,5",1490,"57,6",593,"22,9","45,4",2586,1685,630,271,"26,4",-57,"-2,2"
464992.87003,5761468.44136,188,Waldkindergarten Bielefeld,33649.000000000000000,Bielefeld,Niederbreede,1.000000000000000,,,,464992.870029999990948,5761468.441359999589622,90,Stat. Raumeinheit 324,324,1158,1164,407,"17,5",1426,"61,4",489,"21,1","43,5",2322,1328,528,466,"20,6",23,"1"
464358.79403,5764280.92436,72,Evangelisches Familienzentrum Hoberge-Uerentrup,33619.000000000000000,Bielefeld,Markuskirchweg,15.000000000000000,,x,,464358.794029999990016,5764280.924359998665750,92,Stat. Raumeinheit 402,402,1064,1152,335,"15,1",1311,"59,2",570,"25,7","47,1",2216,1818,268,130,"17,4",6,"0,3"
464527.49903,5765875.23336,20,AWO KiTa und Familienzentrum Zehlendorfer Damm,33619.000000000000000,Bielefeld,Zehlendorfer Damm,54.000000000000000,,x,,464527.499029999948107,5765875.233359999954700,93,Stat. Raumeinheit 403,403,1383,1540,508,"17,4",1464,"50,1",951,"32,5","48",2923,2025,630,268,"21",224,"8,3"
463672.40603,5766047.14536,105,Kita am Freibad Dornberg e.V.,33619.000000000000000,Bielefeld,Großdornberger Straße,9.000000000000000,,,,463672.406030000012834,5766047.145360000431538,93,Stat. Raumeinheit 403,403,1383,1540,508,"17,4",1464,"50,1",951,"32,5","48",2923,2025,630,268,"21",224,"8,3"
464966.21903,5765617.00736,65,Evangelische Kindertageseinrichtung Wellensiek,33619.000000000000000,Bielefeld,Wellensiek,44.000000000000000,a,,,464966.219029999978375,5765617.007360000163317,94,Stat. Raumeinheit 404,404,1166,1273,265,"10,9",1854,"76",320,"13,1","38,8",2439,1555,468,416,"12,2",17,"0,7"
465000.07903,5766044.30236,110,KiTa Peter Pan e.V.,33619.000000000000000,Bielefeld,Tegeler Weg,10.000000000000000,,,,465000.079030000022613,5766044.302360000088811,94,Stat. Raumeinheit 404,404,1166,1273,265,"10,9",1854,"76",320,"13,1","38,8",2439,1555,468,416,"12,2",17,"0,7"
464810.92503,5766326.00336,182,"KiTa ""Hof Hallau""",33619.000000000000000,Bielefeld,Frohnauer Straße,14.000000000000000,,,,464810.925029999983963,5766326.003360000438988,94,Stat. Raumeinheit 404,404,1166,1273,265,"10,9",1854,"76",320,"13,1","38,8",2439,1555,468,416,"12,2",17,"0,7"
462687.30103,5766182.55236,15,AWO KiTa Obernfeld,33619.000000000000000,Bielefeld,Am Sportplatz,29.000000000000000,,,,462687.301029999973252,5766182.552360000088811,95,Stat. Raumeinheit 405,405,759,859,214,"13,2",977,"60,4",427,"26,4","47,2",1618,1177,285,156,"13,7",-40,"-2,4"
461379.36603,5766155.58336,42,Evangelischer Kindergarten Dornberg Spatzennest,33619.000000000000000,Bielefeld,Am Petersberg,19.000000000000000,,,,461379.366029999975581,5766155.583359999582171,96,Stat. Raumeinheit 406,406,548,606,198,"17,2",671,"58,1",285,"24,7","46,9",1154,909,140,105,"19,6",-57,"-4,7"
465233.31303,5767681.52435,53,Evangelische Kindertageseinrichtung Babenhausen,33619.000000000000000,Bielefeld,Babenhauser Straße,151.000000000000000,,,,465233.313030000019353,5767681.524349999614060,99,Stat. Raumeinheit 409,409,717,785,256,"17",873,"58,1",373,"24,8","45,2",1502,1218,199,85,"17,9",16,"1,1"
463674.39403,5769582.46735,150,städt. KiTa Schröttinghausen,33739.000000000000000,Bielefeld,Horstkotterheide,22.000000000000000,,,x,463674.394030000024941,5769582.467349999584258,100,Stat. Raumeinheit 410,410,567,588,207,"17,9",651,"56,4",297,"25,7","46,7",1155,935,151,69,"25,6",-6,"-0,5"
466598.52503,5770255.94035,45,Evangelisches Familienzentrum Horstheide,33739.000000000000000,Bielefeld,Schnatsweg,26.000000000000000,,x,,466598.525030000018887,5770255.940349999815226,102,Stat. Raumeinheit 501,501,1794,1865,716,"19,6",2148,"58,7",795,"21,7","43,7",3659,2672,752,235,"25,4",554,"17,8"
465922.72303,5772041.92835,46,Evangelisches Familienzentrum Matthias-Claudius,33739.000000000000000,Bielefeld,Böckmannsfeld,53.000000000000000,,x,,465922.723029999993742,5772041.928349999710917,102,Stat. Raumeinheit 501,501,1794,1865,716,"19,6",2148,"58,7",795,"21,7","43,7",3659,2672,752,235,"25,4",554,"17,8"
466559.419690459,5769553.28414287,204,Kita Neuland Falken,33729.000000000000000,Bielefeld,Bohlestraße,13.000000000000000,,x,,,,102,Stat. Raumeinheit 501,501,1794,1865,716,"19,6",2148,"58,7",795,"21,7","43,7",3659,2672,752,235,"25,4",554,"17,8"
466853.15003,5771749.26635,81,KiTa Sternsegler,33739.000000000000000,Bielefeld,Amtsstraße,17.000000000000000,,,,466853.150030000018887,5771749.266350000165403,103,Stat. Raumeinheit 502,502,1156,1288,378,"15,5",1389,"56,8",677,"27,7","47,6",2444,1723,455,266,"17,5",-36,"-1,5"
467043.21903,5771604.75635,137,städt. KiTa Jöllenbeck,33739.000000000000000,Bielefeld,Sogemeierstraße,21.000000000000000,,,x,467043.219030000036582,5771604.756350000388920,104,Stat. Raumeinheit 503,503,915,1030,317,"16,3",995,"51,2",633,"32,5","48,9",1945,1321,378,246,"19,2",-17,"-0,9"
467832.10203,5772224.36635,147,städt. KiTa Oberlohmannshof,33739.000000000000000,Bielefeld,Steinbockstraße,22.000000000000000,,x,x,467832.102030000009108,5772224.366349999792874,105,Stat. Raumeinheit 504,504,1194,1215,619,"25,7",1437,"59,7",353,"14,7","38,3",2409,964,595,850,"31,6",-14,"-0,6"
468151.12103,5772107.82435,86,Familienzentrum Kinderhaus Weltenbummler,33739.000000000000000,Bielefeld,Eickumer Straße,89.000000000000000,,x,,468151.121029999980237,5772107.824350001290441,105,Stat. Raumeinheit 504,504,1194,1215,619,"25,7",1437,"59,7",353,"14,7","38,3",2409,964,595,850,"31,6",-14,"-0,6"
467098.14303,5771524.12235,44,Ev. KiTa Volkening,33739.000000000000000,Bielefeld,Auf dem Schilde,8.000000000000000,,,,467098.143029999977443,5771524.122349999845028,106,Stat. Raumeinheit 505,505,951,1073,359,"17,7",1180,"58,3",485,"24","46,5",2024,1522,347,155,"24,6",-80,"-3,8"
468041.54203,5771253.63235,43,Evangelische Kindertageseinrichtung Hattenhorstfeld,33739.000000000000000,Bielefeld,Oerkenkrug,8.000000000000000,,,,468041.542030000011437,5771253.632349999621511,107,Stat. Raumeinheit 506,506,1168,1206,417,"17,6",1335,"56,2",622,"26,2","46,4",2374,1813,389,172,"21,8",-28,"-1,2"
467196.39003,5768616.96535,16,AWO KiTa Theesen,33739.000000000000000,Bielefeld,Gaudigstraße,5.000000000000000,,,,467196.390030000009574,5768616.965350000187755,108,Stat. Raumeinheit 507,507,1032,1212,295,"13,1",1231,"54,9",718,"32","50,5",2244,1816,303,125,"14,6",-16,"-0,7"
467070.39103,5769446.41935,104,Kinderhaus am Mondsteinweg,33739.000000000000000,Bielefeld,Zirkonstraße,60.000000000000000,,,,467070.391029999998864,5769446.419350000098348,108,Stat. Raumeinheit 507,507,1032,1212,295,"13,1",1231,"54,9",718,"32","50,5",2244,1816,303,125,"14,6",-16,"-0,7"
469163.15303,5769240.51535,73,Ev. Familienzentrum Hand in Hand,33739.000000000000000,Bielefeld,Epiphanienweg,49.000000000000000,,x,,469163.153030000044964,5769240.515350000001490,110,Stat. Raumeinheit 509,509,1118,1184,444,"19,3",1350,"58,6",508,"22,1","43,4",2302,1455,620,227,"24,1",19,"0,8"
469525.00703,5769167.91635,18,AWO KiTa Vilsendorf,33739.000000000000000,Bielefeld,Blackenfeld,7.000000000000000,,,,469525.007029999978840,5769167.916349999606609,111,Stat. Raumeinheit 510,510,1003,1044,392,"19,1",1168,"57,1",487,"23,8","44,3",2047,1350,481,216,"23,9",44,"2,2"
469684.491870679,5769276.72912804,215,Kita Dorffalken,33739.000000000000000,Bielefeld,Gerda-Grube-Straße,2.000000000000000,,,,,,111,Stat. Raumeinheit 510,510,1003,1044,392,"19,1",1168,"57,1",487,"23,8","44,3",2047,1350,481,216,"23,9",44,"2,2"
472313.06302,5769363.60335,8,AWO KiTa im Kinder- und Jugendhaus Brake,33729.000000000000000,Bielefeld,Glückstädter Straße,25.000000000000000,,,,472313.063020000001416,5769363.603350000455976,113,Stat. Raumeinheit 602,602,1474,1578,592,"19,4",1785,"58,5",675,"22,1","43,5",3052,1580,880,592,"24,5",45,"1,5"
472506.850352941,5769016.64558823,206,KiTa Pirateninsel e.V. Braker Straße,33729.000000000000000,Bielefeld,Braker Straße,90.000000000000000,,,,,,113,Stat. Raumeinheit 602,602,1474,1578,592,"19,4",1785,"58,5",675,"22,1","43,5",3052,1580,880,592,"24,5",45,"1,5"
472280.85102,5769003.61835,125,städt. KiTa Braker Straße,33729.000000000000000,Bielefeld,Braker Straße,109.000000000000000,,,x,472280.851020000001881,5769003.618350000120699,113,Stat. Raumeinheit 602,602,1474,1578,592,"19,4",1785,"58,5",675,"22,1","43,5",3052,1580,880,592,"24,5",45,"1,5"
471314.42903,5769485.47235,107,Kita Schaukelpferd e.V.,33729.000000000000000,Bielefeld,Engersche Straße,403.000000000000000,,,,471314.429029999941122,5769485.472350000403821,114,Stat. Raumeinheit 603,603,846,905,318,"18,2",961,"54,9",472,"27","46",1751,1244,366,141,"22,7",-47,"-2,6"
472429.09302,5769695.28035,124,städt. KiTa Brake,33729.000000000000000,Bielefeld,Rottsiek,79.000000000000000,,,x,472429.093019999971148,5769695.280349999666214,114,Stat. Raumeinheit 603,603,846,905,318,"18,2",961,"54,9",472,"27","46",1751,1244,366,141,"22,7",-47,"-2,6"
472730.20702,5769130.28035,7,AWO Kita und Familienzentrum Hackemackweg,33729.000000000000000,Bielefeld,Hackemackweg,1.000000000000000,,x,,472730.207019999972545,5769130.280349999666214,115,Stat. Raumeinheit 604,604,660,698,260,"19,1",779,"57,4",319,"23,5","44",1358,682,490,186,"24,6",-28,"-2"
471845.29702,5766645.49036,151,städt. KiTa Seidenstickerstraße,33609.000000000000000,Bielefeld,Seidenstickerstraße,11.000000000000000,a,x,x,471845.297019999998156,5766645.490359999239445,117,Stat. Raumeinheit 606,606,1143,1154,672,"29,3",1336,"58,2",289,"12,6","35",2297,305,759,1233,"33,7",108,"4,9"
472320.20202,5766421.61636,82,Kinderhaus Rabenhof,33609.000000000000000,Bielefeld,Rabenhof,57.000000000000000,a,,,472320.202020000026096,5766421.616360001266003,118,Stat. Raumeinheit 607,607,1080,1252,476,"20,4",1263,"54,2",593,"25,4","44,1",2332,565,1062,705,"24,7",35,"1,5"
472517.14702,5766699.71636,70,Evangelisches Familienzentrum Baumheide,33609.000000000000000,Bielefeld,Donauschwabenstraße,10.000000000000000,,x,,472517.147019999974873,5766699.716359999962151,119,Stat. Raumeinheit 608,608,946,987,499,"25,8",1071,"55,4",363,"18,8","38,9",1933,291,748,894,"26,3",117,"6,4"
472577.69702,5766485.79736,130,städt. KiTa Großer Wiel,33609.000000000000000,Bielefeld,Siebenbürger Straße,46.000000000000000,a,,x,472577.697020000021439,5766485.797360000200570,119,Stat. Raumeinheit 608,608,946,987,499,"25,8",1071,"55,4",363,"18,8","38,9",1933,291,748,894,"26,3",117,"6,4"
471889.91902,5765831.11636,121,städt. KiTa Am Wellbach,33609.000000000000000,Bielefeld,Am Wellbach,55.000000000000000,,,x,471889.919019999972079,5765831.116360000334680,120,Stat. Raumeinheit 609,609,797,822,365,"22,5",925,"57,1",329,"20,3","41",1619,694,653,272,"26",133,"9"
472742.20202,5767564.28135,13,AWO Kita Milse,33729.000000000000000,Bielefeld,Robert-Bracksiek-Straße,21.000000000000000,,,,472742.202020000026096,5767564.281349999830127,121,Stat. Raumeinheit 610,610,1543,1549,661,"21,4",1925,"62,3",506,"16,4","39,8",3092,968,1467,657,"26,9",41,"1,3"
472534.106934911,5766957.37511834,202,DRK KiTa und Familienzentrum Traumheide,33609.000000000000000,Bielefeld,Welfenstraße,26.000000000000000,,x,,,,121,Stat. Raumeinheit 610,610,1543,1549,661,"21,4",1925,"62,3",506,"16,4","39,8",3092,968,1467,657,"26,9",41,"1,3"
473589.22602,5767865.82635,34,DRK KiTa Mehlhausen,33729.000000000000000,Bielefeld,Mehlstraße,14.000000000000000,,,,473589.226020000001881,5767865.826349999755621,122,Stat. Raumeinheit 611,611,1529,1655,586,"18,4",1857,"58,3",741,"23,3","44,6",3184,1847,1051,286,"23,8",-30,"-0,9"
474146.22702,5767805.69035,59,Evangelische Kindertageseinrichtung Milse,33729.000000000000000,Bielefeld,Elverdisser Straße,74.000000000000000,,,,474146.227019999991171,5767805.690349999815226,122,Stat. Raumeinheit 611,611,1529,1655,586,"18,4",1857,"58,3",741,"23,3","44,6",3184,1847,1051,286,"23,8",-30,"-0,9"
474167.16802,5767412.31735,14,AWO Kita und Familienzentrum Moenkamp,33729.000000000000000,Bielefeld,Moenkamp,19.000000000000000,,x,,474167.168020000040997,5767412.317350000143051,123,Stat. Raumeinheit 612,612,1115,1132,516,"23",1304,"58",427,"19","41",2247,907,862,478,"27,3",103,"4,8"
475111.46102,5766489.95136,4,AWO Kita und Familienzentrum Altenhagen,33729.000000000000000,Bielefeld,Am Franzhof,6.000000000000000,,x,,475111.461019999987911,5766489.951360000297427,124,Stat. Raumeinheit 613,613,1417,1437,569,"19,9",1692,"59,3",593,"20,8","42,7",2854,1765,750,339,"23,6",97,"3,5"
473390.17302,5764561.70736,31,DRK KiTa Heeper Strolche,33719.000000000000000,Bielefeld,Rüggesiek,21.000000000000000,,,,473390.173019999987446,5764561.707360000349581,126,Stat. Raumeinheit 615,615,1399,1354,511,"18,6",1721,"62,5",521,"18,9","43,1",2753,1660,885,208,"24,6",65,"2,4"
473430.90302,5764541.44636,36,DRK KiTa und Familienzentrum Nestwerk,33719.000000000000000,Bielefeld,Rüggesiek,26.000000000000000,,x,,473430.903020000027027,5764541.446360000409186,126,Stat. Raumeinheit 615,615,1399,1354,511,"18,6",1721,"62,5",521,"18,9","43,1",2753,1660,885,208,"24,6",65,"2,4"
473432.377987791,5765116.19298779,203,Kita Am Alten Bauhof,33719.000000000000000,Bielefeld,Altenhagener Straße,60.000000000000000,,,,,,126,Stat. Raumeinheit 615,615,1399,1354,511,"18,6",1721,"62,5",521,"18,9","43,1",2753,1660,885,208,"24,6",65,"2,4"
472704.22202,5764626.37536,71,Evangelisches Familienzentrum Die Kinderbrücke,33719.000000000000000,Bielefeld,Oberlinstraße,4.000000000000000,,x,,472704.222019999928307,5764626.375359999947250,128,Stat. Raumeinheit 617,617,445,558,147,"14,7",539,"53,7",317,"31,6","49,3",1003,666,201,136,"16,8",-72,"-6,7"
473168.66502,5764407.59436,33,DRK KiTa Lummerland,33719.000000000000000,Bielefeld,Salzufler Straße,48.000000000000000,,,,473168.665020000014920,5764407.594359999522567,131,Stat. Raumeinheit 620,620,961,1148,263,"12,5",1208,"57,3",638,"30,3","49",2109,1321,526,262,"14,4",112,"5,6"
472902.78902,5764270.16936,89,Montessori Kinderhaus Heepen,33719.000000000000000,Bielefeld,Theodor-Heuss-Straße,16.000000000000000,,,,472902.789019999967422,5764270.169359999708831,131,Stat. Raumeinheit 620,620,961,1148,263,"12,5",1208,"57,3",638,"30,3","49",2109,1321,526,262,"14,4",112,"5,6"
472843.90402,5764129.54636,68,Evangelisches Familienzentrum Am Petristift,33719.000000000000000,Bielefeld,Theodor-Heuss-Straße,23.000000000000000,,x,,472843.904020000016317,5764129.546360000036657,132,Stat. Raumeinheit 621,621,961,1082,385,"18,8",1163,"56,9",495,"24,2","45,1",2043,1158,682,203,"21,4",38,"1,9"
472269.01902,5763029.67336,120,städt. KiTa Am Vollbruch,33719.000000000000000,Bielefeld,Am Vollbruch,66.000000000000000,,,x,472269.019020000007004,5763029.673360000364482,133,Stat. Raumeinheit 622,622,1053,1115,423,"19,5",1335,"61,6",410,"18,9","42,1",2168,955,759,454,"22,3",-69,"-3,1"
472576.41602,5762509.40736,56,Ev. Familienzentrum Kinderarche,33719.000000000000000,Bielefeld,Siekstraße,14.000000000000000,,x,,472576.416020000004210,5762509.407359999604523,133,Stat. Raumeinheit 622,622,1053,1115,423,"19,5",1335,"61,6",410,"18,9","42,1",2168,955,759,454,"22,3",-69,"-3,1"
471387.01703,5763168.61636,38,KiTa Spatzennest,33607.000000000000000,Bielefeld,Kuckucksweg,71.000000000000000,b,,,471387.017029999988154,5763168.616360000334680,133,Stat. Raumeinheit 622,622,1053,1115,423,"19,5",1335,"61,6",410,"18,9","42,1",2168,955,759,454,"22,3",-69,"-3,1"
472517.21302,5762215.73736,183,"KiTa ""JABinis""",33719.000000000000000,Bielefeld,Potsdamer Straße,160.000000000000000,,,,472517.213020000024699,5762215.737359998747706,134,Stat. Raumeinheit 623,623,1313,1370,517,"19,3",1543,"57,5",623,"23,2","44,3",2683,1164,926,593,"22",251,"10,3"
475558.58302,5760827.04336,17,AWO Kita Ubbedissen,33699.000000000000000,Bielefeld,Dingerdisser Straße,132.000000000000000,,,,475558.583020000078250,5760827.043359999544919,135,Stat. Raumeinheit 701,701,915,903,343,"18,9",1126,"61,9",349,"19,2","43,4",1818,1027,653,138,"25,2",-61,"-3,2"
474918.115215109,5760204.63450192,216,Stepke-KiTa Zauberhaft,33699.000000000000000,Bielefeld,Hamelner Str.,12.000000000000000,a,,,,,135,Stat. Raumeinheit 701,701,915,903,343,"18,9",1126,"61,9",349,"19,2","43,4",1818,1027,653,138,"25,2",-61,"-3,2"
474603.38902,5759838.44936,25,Kindertageseinrichtung Regenbogen,33699.000000000000000,Bielefeld,Wietkamp,7.000000000000000,,,,474603.389020000002347,5759838.449359999969602,137,Stat. Raumeinheit 703,703,965,1003,359,"18,2",1069,"54,3",540,"27,4","45,8",1968,1252,550,166,"23,7",19,"1"
473921.07002,5758110.55236,142,städt. KiTa Lämershagen,33699.000000000000000,Bielefeld,Lämershagener Straße,320.000000000000000,,,x,473921.070019999984652,5758110.552360000088811,138,Stat. Raumeinheit 704,704,694,662,248,"18,3",814,"60",294,"21,7","44,9",1356,951,288,117,"23,5",2,"0,1"
473295.86202,5761050.05336,111,KiTa Ramba Zamba e.V.,33699.000000000000000,Bielefeld,Bielitzer Straße,41.000000000000000,,,,473295.862020000000484,5761050.053360000252724,139,Stat. Raumeinheit 705,705,1016,990,403,"20,1",1160,"57,8",443,"22,1","43,1",2006,985,694,327,"23,9",-14,"-0,7"
473232.75802,5760463.20136,23,"Christliche Kindertagesstätte ""Der Leuchtturm""",33699.000000000000000,Bielefeld,Auf der Sülte,8.000000000000000,,,,473232.758020000008401,5760463.201360000297427,140,Stat. Raumeinheit 706,706,1791,1858,643,"17,6",2200,"60,3",806,"22,1","43,9",3649,2123,1085,441,"20,5",19,"0,5"
473336.87202,5759789.88136,69,Evangelisches Familienzentrum Am Rosenhag,33699.000000000000000,Bielefeld,Am Rosenhag,15.000000000000000,,x,,473336.872020000009798,5759789.881359999999404,140,Stat. Raumeinheit 706,706,1791,1858,643,"17,6",2200,"60,3",806,"22,1","43,9",3649,2123,1085,441,"20,5",19,"0,5"
473241.346384123,5760388.01821639,214,"Christliche KiTa ""Die Schatztruhe""",33699.000000000000000,Bielefeld,Detmolder Straße,613.000000000000000,a,,,,,140,Stat. Raumeinheit 706,706,1791,1858,643,"17,6",2200,"60,3",806,"22,1","43,9",3649,2123,1085,441,"20,5",19,"0,5"
471549.00502,5761232.48636,155,städt. KiTa Stieghorst,33605.000000000000000,Bielefeld,Gumbinner Straße,57.000000000000000,,x,x,471549.005019999982323,5761232.486359999515116,141,Stat. Raumeinheit 707,707,1289,1514,461,"16,4",1482,"52,9",860,"30,7","48,2",2803,1507,733,563,"20,3",367,"15,1"
471707.37102,5761164.52336,116,Naturkindergarten,33605.000000000000000,Bielefeld,Tilsiter Straße,5.000000000000000,,,,471707.371020000020508,5761164.523359999991953,141,Stat. Raumeinheit 707,707,1289,1514,461,"16,4",1482,"52,9",860,"30,7","48,2",2803,1507,733,563,"20,3",367,"15,1"
471978.99302,5762018.72836,24,"Christliche Kindertagesstätte ""Die Kinderburg""",33605.000000000000000,Bielefeld,Scheckenheide,2.000000000000000,b,,,471978.993019999994431,5762018.728360000066459,142,Stat. Raumeinheit 708,708,1430,1535,483,"16,3",1710,"57,7",772,"26","45,5",2965,1363,1068,534,"17,9",15,"0,5"
471912.50102,5761059.53536,93,Kath. KiTa St. Bonifatius,33605.000000000000000,Bielefeld,Danziger Straße,43.000000000000000,,,,471912.501019999966957,5761059.535360000096262,142,Stat. Raumeinheit 708,708,1430,1535,483,"16,3",1710,"57,7",772,"26","45,5",2965,1363,1068,534,"17,9",15,"0,5"
472183.22302,5761167.07036,154,städt. KiTa Stettiner Straße,33605.000000000000000,Bielefeld,Stettiner Straße,38.000000000000000,,,x,472183.223019999975804,5761167.070360000245273,143,Stat. Raumeinheit 709,709,993,1027,397,"19,7",1164,"57,6",459,"22,7","43,4",2020,692,763,565,"21,9",-44,"-2,1"
471908.88502,5760346.95136,54,Evangelische Kindertageseinrichtung Gustav-Adolf,33605.000000000000000,Bielefeld,Lipper Hellweg,269.000000000000000,,,,471908.885019999986980,5760346.951360001228750,144,Stat. Raumeinheit 710,710,1264,1328,587,"22,6",1608,"62",397,"15,3","39,4",2592,982,768,842,"27,5",325,"14,3"
470176.42703,5761428.87136,21,AWO KiTa und Familienzentrum im Elfriede-Eilers-Zentrum,33605.000000000000000,Bielefeld,Detmolder Straße,280.000000000000000,,x,,470176.427030000020750,5761428.871360000222921,145,Stat. Raumeinheit 711,711,852,873,338,"19,6",1128,"65,4",259,"15","40,3",1725,893,503,329,"22,9",207,"13,6"
469949.002735882,5762279.4270637,80,Familienzentrum Kinderhaus Entdeckerwelt,33605.000000000000000,Bielefeld,Otto-Brenner-Straße,171.000000000000000,,x,,470337.238030000007711,5761975.723360000178218,145,Stat. Raumeinheit 711,711,852,873,338,"19,6",1128,"65,4",259,"15","40,3",1725,893,503,329,"22,9",207,"13,6"
470204.311798228,5761227.09483182,218,KiTa Löwenstark,33605.000000000000000,Bielefeld,Konrad-Zuse-Straße,7.000000000000000,a,,,,,145,Stat. Raumeinheit 711,711,852,873,338,"19,6",1128,"65,4",259,"15","40,3",1725,893,503,329,"22,9",207,"13,6"
470541.16903,5762096.42236,128,städt. KiTa Butterkamp,33605.000000000000000,Bielefeld,Butterkamp,9.000000000000000,,x,x,470541.169029999990016,5762096.422360000200570,147,Stat. Raumeinheit 713,713,992,1046,383,"18,8",1308,"64,2",347,"17","40",2038,464,816,758,"21,3",3,"0,1"
470683.715597633,5761884.3883787,201,SKM-KiTa D.O.M.-Greifswald,33605.000000000000000,Bielefeld,Greifswalder Str.,64.000000000000000,,,,,,147,Stat. Raumeinheit 713,713,992,1046,383,"18,8",1308,"64,2",347,"17","40",2038,464,816,758,"21,3",3,"0,1"
469746.79803,5761048.72236,52,Kindergarten Hellenkamp,33604.000000000000000,Bielefeld,Hellenkamp,3.000000000000000,,,,469746.798030000005383,5761048.722360000014305,148,Stat. Raumeinheit 714,714,1326,1342,441,"16,5",1729,"64,8",498,"18,7","43,2",2668,1748,556,364,"18",115,"4,5"
469523.51203,5761302.23336,87,"Integrative KiTa ""Die Waldmäuse e.V.""",33605.000000000000000,Bielefeld,Am Kämpchen,5.000000000000000,,,,469523.512029999983497,5761302.233359999954700,148,Stat. Raumeinheit 714,714,1326,1342,441,"16,5",1729,"64,8",498,"18,7","43,2",2668,1748,556,364,"18",115,"4,5"
471703.54202,5760043.59136,79,Familienzentrum Kinderhaus Am Alten Dreisch,33605.000000000000000,Bielefeld,Am Alten Dreisch,16.000000000000000,b,x,,471703.542019999993499,5760043.591359999962151,149,Stat. Raumeinheit 715,715,929,922,278,"15",1185,"64",388,"21","43,6",1851,1045,432,374,"17",48,"2,7"
472658.36202,5753407.04237,172,Ev. KiTa Mittendrin,33689.000000000000000,Bielefeld,Dalbker Allee,20.000000000000000,,,,472658.362020000000484,5753407.042369999922812,151,Stat. Raumeinheit 802,802,622,604,242,"19,7",816,"66,6",168,"13,7","40,1",1226,385,694,147,"26,9",-46,"-3,6"
472603.699286812,5753530.08216389,213,Dalbker Spatzen,33689.000000000000000,Bielefeld,Am Sprungfeld,1.000000000000000,,,,,,151,Stat. Raumeinheit 802,802,622,604,242,"19,7",816,"66,6",168,"13,7","40,1",1226,385,694,147,"26,9",-46,"-3,6"
470032.80903,5754179.88937,108,KiTa Zauberwald,33689.000000000000000,Bielefeld,Kuhloweg,7.000000000000000,,,,470032.809030000003986,5754179.889369999989867,152,Stat. Raumeinheit 803,803,782,677,267,"18,3",872,"59,8",320,"21,9","45,2",1459,988,302,169,"17,6",-91,"-5,9"
471152.11803,5752557.64837,35,DRK KiTa und Familienzentrum Heideblümchen,33689.000000000000000,Bielefeld,Ginsterweg,1.000000000000000,,x,,471152.118030000012368,5752557.648369999602437,153,Stat. Raumeinheit 804,804,1132,1120,465,"20,6",1345,"59,7",442,"19,6","42,5",2252,1254,753,245,"26,5",94,"4,4"
469641.56403,5753491.06437,49,Ev. Kindertagesstätte Nobea,33689.000000000000000,Bielefeld,Verler Straße,185.000000000000000,,,,469641.564030000066850,5753491.064369999803603,153,Stat. Raumeinheit 804,804,1132,1120,465,"20,6",1345,"59,7",442,"19,6","42,5",2252,1254,753,245,"26,5",94,"4,4"
469760.46803,5753233.53037,78,KiTa Wiesenhummeln,33689.000000000000000,Bielefeld,Paracelsusweg,7.000000000000000,,,,469760.468029999989085,5753233.530369999818504,153,Stat. Raumeinheit 804,804,1132,1120,465,"20,6",1345,"59,7",442,"19,6","42,5",2252,1254,753,245,"26,5",94,"4,4"
471062.02403,5754991.11537,30,DRK KiTa und Familienzentrum Abenteuerland,33689.000000000000000,Bielefeld,Altmühlstraße,30.000000000000000,a,x,,471062.024029999971390,5754991.115369999781251,154,Stat. Raumeinheit 805,805,967,1045,361,"17,9",1169,"58,1",482,"24","44,6",2012,820,812,380,"20,4",168,"9,1"
471065.37503,5754354.20537,160,städt. KiTa Wintersheide,33689.000000000000000,Bielefeld,Bleicherfeldstraße,70.000000000000000,,,x,471065.375030000053812,5754354.205369999632239,155,Stat. Raumeinheit 806,806,1229,1240,610,"24,7",1440,"58,3",419,"17","39,3",2469,715,942,812,"28,5",-5,"-0,2"
471370.22202,5754525.25237,96,Kath. KiTa St. Kunigunde,33689.000000000000000,Bielefeld,Hirschweg,39.000000000000000,,,,471370.222019999928307,5754525.252369999885559,155,Stat. Raumeinheit 806,806,1229,1240,610,"24,7",1440,"58,3",419,"17","39,3",2469,715,942,812,"28,5",-5,"-0,2"
472594.90102,5755808.17037,2,AWO Familienzentrum/ KiTa Am Stadion,33689.000000000000000,Bielefeld,Am Stadion,97.000000000000000,,x,,472594.901019999990240,5755808.170370000414550,157,Stat. Raumeinheit 808,808,931,1043,465,"23,6",1099,"55,7",410,"20,8","41,8",1974,709,571,694,"24,5",-34,"-1,7"
471676.003227547,5755205.837067,196,AWO Kita Elbeallee,33689.000000000000000,Bielefeld,Elbeallee,72.000000000000000,,x,,471977.890019999991637,5755321.264369999989867,158,Stat. Raumeinheit 809,809,1875,1926,824,"21,7",2220,"58,4",757,"19,9","41,4",3801,1445,1109,1247,"25,1",233,"6,5"
471936.125361463,5755874.29966268,29,DRK Kita und Familienzentrum Bullerbü,33689.000000000000000,Bielefeld,Travestraße,25.000000000000000,a,x,,471961.979020000027958,5755945.031369999982417,158,Stat. Raumeinheit 809,809,1875,1926,824,"21,7",2220,"58,4",757,"19,9","41,4",3801,1445,1109,1247,"25,1",233,"6,5"
472021.060751707,5755401.99607732,171,Ökumenisches Familienzentrum und KiTa Matthias-Claudius,33689.000000000000000,Bielefeld,Matthias-Claudius-Weg,4.000000000000000,,x,,471977.890019999991637,5755321.264369999989867,158,Stat. Raumeinheit 809,809,1875,1926,824,"21,7",2220,"58,4",757,"19,9","41,4",3801,1445,1109,1247,"25,1",233,"6,5"
471406.63702,5756234.13937,11,AWO KiTa und Familienzentrum Lilienthalstraße,33689.000000000000000,Bielefeld,Lilienthalstraße,6.000000000000000,a,x,,471406.637020000023767,5756234.139370000921190,159,Stat. Raumeinheit 810,810,1290,1382,487,"18,2",1496,"56",689,"25,8","45,4",2672,1169,859,644,"21,4",143,"5,7"
471256.92303,5755159.32937,173,Ev. Familienzentrum und KiTa Morgenstern,33689.000000000000000,Bielefeld,Jadeweg,62.000000000000000,,x,,471256.923030000005383,5755159.329370000399649,159,Stat. Raumeinheit 810,810,1290,1382,487,"18,2",1496,"56",689,"25,8","45,4",2672,1169,859,644,"21,4",143,"5,7"
471440.02302,5755774.10137,98,Kath. KiTa St. Thomas Morus,33689.000000000000000,Bielefeld,Rheinallee,48.000000000000000,,x,,471440.023020000022370,5755774.101370000280440,159,Stat. Raumeinheit 810,810,1290,1382,487,"18,2",1496,"56",689,"25,8","45,4",2672,1169,859,644,"21,4",143,"5,7"
469003.38703,5756442.14937,3,AWO Kita/Familienzentrum Kinderhaus Senne,33659.000000000000000,Bielefeld,Offenburger Straße,7.000000000000000,,x,,469003.387029999983497,5756442.149369999766350,161,Stat. Raumeinheit 901,901,672,767,246,"17,1",735,"51,1",458,"31,8","48,7",1439,996,306,137,"19,9",-20,"-1,4"
467912.811880174,5758741.78795233,88,Montessori Familienzentrum und Kinderhaus Brackwede,33647.000000000000000,Bielefeld,Friedhofstraße,169.000000000000000,,x,,467799.223029999993742,5759339.697359999641776,163,Stat. Raumeinheit 903,903,1085,1231,405,"17,5",1187,"51,3",724,"31,3","48,5",2316,1588,479,249,"19,1",52,"2,3"
468520.48503,5758062.65536,166,"Ev. Familienzentrum KiTa ""Die Arche""",33659.000000000000000,Bielefeld,Max-Planck-Straße,18.000000000000000,,x,,468520.485029999981634,5758062.655360000208020,163,Stat. Raumeinheit 903,903,1085,1231,405,"17,5",1187,"51,3",724,"31,3","48,5",2316,1588,479,249,"19,1",52,"2,3"
469268.92203,5757950.33436,174,Ev. KiTa unterm Regenbogen,33659.000000000000000,Bielefeld,Schopenhauerweg,12.000000000000000,,,,469268.922030000074301,5757950.334359999746084,165,Stat. Raumeinheit 905,905,1202,1239,529,"21,7",1451,"59,4",461,"18,9","42,3",2441,1449,551,441,"27,7",98,"4,2"
466318.73403,5757939.79036,144,städt. KiTa Nordfeldweg,33659.000000000000000,Bielefeld,Nordfeldweg,83.000000000000000,,,x,466318.734029999992345,5757939.790359999984503,166,Stat. Raumeinheit 906,906,1225,1223,595,"24,3",1451,"59,3",402,"16,4","40,1",2448,1084,893,471,"33,8",19,"0,8"
467847.42403,5756091.91937,165,Ev. Christus Kindergarten,33659.000000000000000,Bielefeld,Hermann-Windel-Straße,2.000000000000000,,x,,467847.424029999994673,5756091.919369999319315,167,Stat. Raumeinheit 907,907,988,1076,352,"17,1",1291,"62,5",421,"20,4","43,2",2064,1297,551,216,"21,3",55,"2,7"
467007.05803,5756449.63437,92,Kath. KiTa St. Bartholomäus,33659.000000000000000,Bielefeld,Vormbrockstraße,3.000000000000000,,,,467007.058030000014696,5756449.634370000101626,167,Stat. Raumeinheit 907,907,988,1076,352,"17,1",1291,"62,5",421,"20,4","43,2",2064,1297,551,216,"21,3",55,"2,7"
467489.54403,5757005.66437,9,AWO KiTa Jahnstraße,33659.000000000000000,Bielefeld,Jahnstraße,4.000000000000000,,,,467489.544029999990016,5757005.664370000362396,168,Stat. Raumeinheit 908,908,1209,1316,441,"17,5",1513,"59,9",571,"22,6","45,1",2525,1582,656,287,"21,8",53,"2,1"
467072.43103,5757580.54036,167,Stepke-KiTa Blütenzauber,33659.000000000000000,Bielefeld,Klashofstraße,6.000000000000000,,,,467072.431029999977909,5757580.540359999053180,168,Stat. Raumeinheit 908,908,1209,1316,441,"17,5",1513,"59,9",571,"22,6","45,1",2525,1582,656,287,"21,8",53,"2,1"
467077.386756098,5757397.3,210,Familienzentrum Stepke-KiTa Zauberblüte,33659.000000000000000,Bielefeld,Friedhofstraße,3.000000000000000,,x,,,,168,Stat. Raumeinheit 908,908,1209,1316,441,"17,5",1513,"59,9",571,"22,6","45,1",2525,1582,656,287,"21,8",53,"2,1"
465392.26103,5755107.07137,159,städt. KiTa Windflöte,33659.000000000000000,Bielefeld,Nelkenweg,62.000000000000000,,,x,465392.261029999994207,5755107.071370000019670,169,Stat. Raumeinheit 909,909,956,886,300,"16,3",1117,"60,6",425,"23,1","45,2",1842,1148,449,245,"20",-18,"-1"
465595.49603,5755238.50937,176,Ev. Lutherkindergarten,33659.000000000000000,Bielefeld,Primelweg,17.000000000000000,,x,,465595.496029999980237,5755238.509370000101626,170,Stat. Raumeinheit 910,910,1376,1333,504,"18,6",1667,"61,5",538,"19,9","42,7",2709,1113,856,740,"22,2",-33,"-1,2"
